{"type": "FeatureCollection", "features": [ {"type": "Feature", "properties": {"norad_id": 34117, "name": "COSMOS 2251 DEB", "group": "cosmos-2251-debris", "lat": -52.573437593265304, "lon": -159.13259538824036, "alt_km": 801.1575459680371, "timestamp": "2025-12-04T13:52:00.835397+00:00", "meta": {"OBJECT_NAME": "COSMOS 2251 DEB", "OBJECT_ID": "1993-036KN", "EPOCH": "2025-12-04T02:46:32.627424", "MEAN_MOTION": 14.39958209, "ECCENTRICITY": 0.00543838, "INCLINATION": 74.0403, "RA_OF_ASC_NODE": 359.7622, "ARG_OF_PERICENTER": 78.7604, "MEAN_ANOMALY": 281.9656, "EPHEMERIS_TYPE": 0, "CLASSIFICATION_TYPE": "U", "NORAD_CAT_ID": 34117, "ELEMENT_SET_NO": 999, "REV_AT_EPOCH": 87999, "BSTAR": 0.00122156, "MEAN_MOTION_DOT": 3.888e-05, "MEAN_MOTION_DDOT": 0}, "tle": {"line1": "1 34117U 93036KN  25338.11565541  .00003888  00000+0  12216-2 0  9996", "line2": "2 34117  74.0403 359.7622 0054383  78.7604 281.9656 14.39958209879994"}}, "geometry": {"type": "Point", "coordinates": [-159.13259538824036, -52.573437593265304]}}, {"type": "Feature", "properties": {"norad_id": 34118, "name": "COSMOS 2251 DEB", "group": "cosmos-2251-debris", "lat": 9.235153302937972, "lon": 83.13208497947637, "alt_km": 575.6369930009623, "timestamp": "2025-12-04T13:52:00.835408+00:00", "meta": {"OBJECT_NAME": "COSMOS 2251 DEB", "OBJECT_ID": "1993-036KP", "EPOCH": "2025-12-04T05:46:52.560768", "MEAN_MOTION": 14.93384561, "ECCENTRICITY": 0.00599773, "INCLINATION": 73.9532, "RA_OF_ASC_NODE": 266.4953, "ARG_OF_PERICENTER": 98.8912, "MEAN_ANOMALY": 60.2244, "EPHEMERIS_TYPE": 0, "CLASSIFICATION_TYPE": "U", "NORAD_CAT_ID": 34118, "ELEMENT_SET_NO": 999, "REV_AT_EPOCH": 89049, "BSTAR": 0.0050046145, "MEAN_MOTION_DOT": 0.00054799, "MEAN_MOTION_DDOT": 0}, "tle": {"line1": "1 34118U 93036KP  25338.24088612  .00054799  00000+0  50046-2 0  9990", "line2": "2 34118  73.9532 266.4953 0059977  98.8912  60.2244 14.93384561890499"}}, "geometry": {"type": "Point", "coordinates": [83.13208497947637, 9.235153302937972]}}, {"type": "Feature", "properties": {"norad_id": 34120, "name": "COSMOS 2251 DEB", "group": "cosmos-2251-debris", "lat": 48.18691152072412, "lon": 31.6382200735938, "alt_km": 844.705652005262, "timestamp": "2025-12-04T13:52:00.835418+00:00", "meta": {"OBJECT_NAME": "COSMOS 2251 DEB", "OBJECT_ID": "1993-036KR", "EPOCH": "2025-12-04T03:34:11.432352", "MEAN_MOTION": 13.98668339, "ECCENTRICITY": 0.01815907, "INCLINATION": 73.9918, "RA_OF_ASC_NODE": 231.1005, "ARG_OF_PERICENTER": 60.7248, "MEAN_ANOMALY": 66.9399, "EPHEMERIS_TYPE": 0, "CLASSIFICATION_TYPE": "U", "NORAD_CAT_ID": 34120, "ELEMENT_SET_NO": 999, "REV_AT_EPOCH": 85860, "BSTAR": 0.00063905823, "MEAN_MOTION_DOT": 1.034e-05, "MEAN_MOTION_DDOT": 0}, "tle": {"line1": "1 34120U 93036KR  25338.14874343  .00001034  00000+0  63906-3 0  9990", "line2": "2 34120  73.9918 231.1005 0181590  60.7248  66.9399 13.98668339858607"}}, "geometry": {"type": "Point", "coordinates": [31.6382200735938, 48.18691152072412]}}, {"type": "Feature", "properties": {"norad_id": 34121, "name": "COSMOS 2251 DEB", "group": "cosmos-2251-debris", "lat": 2.9551664347072806, "lon": -69.69235663163305, "alt_km": 1059.6155400064363, "timestamp": "2025-12-04T13:52:00.835428+00:00", "meta": {"OBJECT_NAME": "COSMOS 2251 DEB", "OBJECT_ID": "1993-036KS", "EPOCH": "2025-12-03T16:22:38.788032", "MEAN_MOTION": 13.91880225, "ECCENTRICITY": 0.02397358, "INCLINATION": 73.9915, "RA_OF_ASC_NODE": 112.6905, "ARG_OF_PERICENTER": 320.0883, "MEAN_ANOMALY": 53.566, "EPHEMERIS_TYPE": 0, "CLASSIFICATION_TYPE": "U", "NORAD_CAT_ID": 34121, "ELEMENT_SET_NO": 999, "REV_AT_EPOCH": 84999, "BSTAR": 0.0014175875, "MEAN_MOTION_DOT": 2.259e-05, "MEAN_MOTION_DDOT": 0}, "tle": {"line1": "1 34121U 93036KS  25337.68239338  .00002259  00000+0  14176-2 0  9992", "line2": "2 34121  73.9915 112.6905 0239735 320.0883  53.5660 13.91880225849997"}}, "geometry": {"type": "Point", "coordinates": [-69.69235663163305, 2.9551664347072806]}}, {"type": "Feature", "properties": {"norad_id": 34122, "name": "COSMOS 2251 DEB", "group": "cosmos-2251-debris", "lat": 73.22143884517597, "lon": -153.95430905001032, "alt_km": 632.7098136578124, "timestamp": "2025-12-04T13:52:00.835438+00:00", "meta": {"OBJECT_NAME": "COSMOS 2251 DEB", "OBJECT_ID": "1993-036KT", "EPOCH": "2025-12-04T04:27:16.004160", "MEAN_MOTION": 14.64873166, "ECCENTRICITY": 0.00838794, "INCLINATION": 74.0347, "RA_OF_ASC_NODE": 135.0881, "ARG_OF_PERICENTER": 34.4384, "MEAN_ANOMALY": 142.2663, "EPHEMERIS_TYPE": 0, "CLASSIFICATION_TYPE": "U", "NORAD_CAT_ID": 34122, "ELEMENT_SET_NO": 999, "REV_AT_EPOCH": 88559, "BSTAR": 0.0024939017, "MEAN_MOTION_DOT": 0.0001403, "MEAN_MOTION_DDOT": 0}, "tle": {"line1": "1 34122U 93036KT  25338.18560190  .00014030  00000+0  24939-2 0  9990", "line2": "2 34122  74.0347 135.0881 0083879  34.4384 142.2663 14.64873166885591"}}, "geometry": {"type": "Point", "coordinates": [-153.95430905001032, 73.22143884517597]}}, {"type": "Feature", "properties": {"norad_id": 34127, "name": "COSMOS 2251 DEB", "group": "cosmos-2251-debris", "lat": -70.31378123245673, "lon": -68.9700641979007, "alt_km": 711.8725969201023, "timestamp": "2025-12-04T13:52:00.835448+00:00", "meta": {"OBJECT_NAME": "COSMOS 2251 DEB", "OBJECT_ID": "1993-036KY", "EPOCH": "2025-12-04T06:14:03.548256", "MEAN_MOTION": 14.31404117, "ECCENTRICITY": 0.01146411, "INCLINATION": 74.1802, "RA_OF_ASC_NODE": 59.1881, "ARG_OF_PERICENTER": 261.1498, "MEAN_ANOMALY": 158.8839, "EPHEMERIS_TYPE": 0, "CLASSIFICATION_TYPE": "U", "NORAD_CAT_ID": 34127, "ELEMENT_SET_NO": 999, "REV_AT_EPOCH": 86650, "BSTAR": 0.0047271338, "MEAN_MOTION_DOT": 0.00013474, "MEAN_MOTION_DDOT": 0}, "tle": {"line1": "1 34127U 93036KY  25338.25976329  .00013474  00000+0  47271-2 0  9993", "line2": "2 34127  74.1802  59.1881 0114641 261.1498 158.8839 14.31404117866504"}}, "geometry": {"type": "Point", "coordinates": [-68.9700641979007, -70.31378123245673]}}, {"type": "Feature", "properties": {"norad_id": 34128, "name": "COSMOS 2251 DEB", "group": "cosmos-2251-debris", "lat": -45.23491056642401, "lon": 150.18931596425105, "alt_km": 589.0303538533444, "timestamp": "2025-12-04T13:52:00.835458+00:00", "meta": {"OBJECT_NAME": "COSMOS 2251 DEB", "OBJECT_ID": "1993-036KZ", "EPOCH": "2025-12-04T00:19:24.902688", "MEAN_MOTION": 15.00463198, "ECCENTRICITY": 0.00264561, "INCLINATION": 73.9994, "RA_OF_ASC_NODE": 314.5221, "ARG_OF_PERICENTER": 67.9834, "MEAN_ANOMALY": 352.497, "EPHEMERIS_TYPE": 0, "CLASSIFICATION_TYPE": "U", "NORAD_CAT_ID": 34128, "ELEMENT_SET_NO": 999, "REV_AT_EPOCH": 89036, "BSTAR": 0.0041523665, "MEAN_MOTION_DOT": 0.00053022, "MEAN_MOTION_DDOT": 0}, "tle": {"line1": "1 34128U 93036KZ  25338.01348267  .00053022  00000+0  41524-2 0  9990", "line2": "2 34128  73.9994 314.5221 0026456  67.9834 352.4970 15.00463198890362"}}, "geometry": {"type": "Point", "coordinates": [150.18931596425105, -45.23491056642401]}}, {"type": "Feature", "properties": {"norad_id": 34129, "name": "COSMOS 2251 DEB", "group": "cosmos-2251-debris", "lat": 13.707095478571024, "lon": 171.49239308876886, "alt_km": 642.4667343807005, "timestamp": "2025-12-04T13:52:00.835468+00:00", "meta": {"OBJECT_NAME": "COSMOS 2251 DEB", "OBJECT_ID": "1993-036LA", "EPOCH": "2025-12-04T03:21:31.581504", "MEAN_MOTION": 14.75503723, "ECCENTRICITY": 0.00326765, "INCLINATION": 74.0353, "RA_OF_ASC_NODE": 356.3522, "ARG_OF_PERICENTER": 80.7658, "MEAN_ANOMALY": 279.721, "EPHEMERIS_TYPE": 0, "CLASSIFICATION_TYPE": "U", "NORAD_CAT_ID": 34129, "ELEMENT_SET_NO": 999, "REV_AT_EPOCH": 61171, "BSTAR": 0.0026852783, "MEAN_MOTION_DOT": 0.00018455, "MEAN_MOTION_DDOT": 0}, "tle": {"line1": "1 34129U 93036LA  25338.13994886  .00018455  00000+0  26853-2 0  9997", "line2": "2 34129  74.0353 356.3522 0032676  80.7658 279.7210 14.75503723611718"}}, "geometry": {"type": "Point", "coordinates": [171.49239308876886, 13.707095478571024]}}, {"type": "Feature", "properties": {"norad_id": 34136, "name": "COSMOS 2251 DEB", "group": "cosmos-2251-debris", "lat": -10.181849453849347, "lon": -118.3217103576212, "alt_km": 573.0415851742591, "timestamp": "2025-12-04T13:52:00.835478+00:00", "meta": {"OBJECT_NAME": "COSMOS 2251 DEB", "OBJECT_ID": "1993-036LH", "EPOCH": "2025-12-04T06:46:29.849952", "MEAN_MOTION": 14.79974399, "ECCENTRICITY": 0.0086515, "INCLINATION": 74.022, "RA_OF_ASC_NODE": 59.3109, "ARG_OF_PERICENTER": 184.4984, "MEAN_ANOMALY": 232.1376, "EPHEMERIS_TYPE": 0, "CLASSIFICATION_TYPE": "U", "NORAD_CAT_ID": 34136, "ELEMENT_SET_NO": 999, "REV_AT_EPOCH": 89885, "BSTAR": 0.0012702689, "MEAN_MOTION_DOT": 0.00010216, "MEAN_MOTION_DDOT": 0}, "tle": {"line1": "1 34136U 93036LH  25338.28228993  .00010216  00000+0  12703-2 0  9996", "line2": "2 34136  74.0220  59.3109 0086515 184.4984 232.1376 14.79974399898858"}}, "geometry": {"type": "Point", "coordinates": [-118.3217103576212, -10.181849453849347]}}, {"type": "Feature", "properties": {"norad_id": 34139, "name": "COSMOS 2251 DEB", "group": "cosmos-2251-debris", "lat": 9.814486714513771, "lon": 86.77734527347711, "alt_km": 727.9449974526497, "timestamp": "2025-12-04T13:52:00.835488+00:00", "meta": {"OBJECT_NAME": "COSMOS 2251 DEB", "OBJECT_ID": "1993-036LL", "EPOCH": "2025-12-04T05:24:27.316224", "MEAN_MOTION": 14.58865504, "ECCENTRICITY": 0.00426152, "INCLINATION": 74.0314, "RA_OF_ASC_NODE": 270.2879, "ARG_OF_PERICENTER": 342.6571, "MEAN_ANOMALY": 136.6863, "EPHEMERIS_TYPE": 0, "CLASSIFICATION_TYPE": "U", "NORAD_CAT_ID": 34139, "ELEMENT_SET_NO": 999, "REV_AT_EPOCH": 88025, "BSTAR": 0.0037604393, "MEAN_MOTION_DOT": 0.00017845, "MEAN_MOTION_DDOT": 0}, "tle": {"line1": "1 34139U 93036LL  25338.22531616  .00017845  00000+0  37604-2 0  9994", "line2": "2 34139  74.0314 270.2879 0042615 342.6571 136.6863 14.58865504880254"}}, "geometry": {"type": "Point", "coordinates": [86.77734527347711, 9.814486714513771]}}]}